OBJECT_NAME,OBJECT_ID,EPOCH,MEAN_MOTION,ECCENTRICITY,INCLINATION,RA_OF_ASC_NODE,ARG_OF_PERICENTER,MEAN_ANOMALY,EPHEMERIS_TYPE,CLASSIFICATION_TYPE,NORAD_CAT_ID,ELEMENT_SET_NO,REV_AT_EPOCH,BSTAR,MEAN_MOTION_DOT,MEAN_MOTION_DDOT
ONEWEB-0162,2021-025Q,2026-06-11T11:49:31.973088,13.13470409,.0001982,87.8952,321.3576,94.0955,266.0400,0,U,48056,999,25279,.57605E-3,.223E-5,0
ONEWEB-0155,2021-025R,2026-06-11T10:09:46.931040,13.13469871,.0001784,87.8941,321.3672,102.0134,258.1195,0,U,48057,999,25292,.15025E-2,.561E-5,0
ONEWEB-0149,2021-025S,2026-06-11T16:10:34.063104,13.13469238,.0002022,87.8957,321.3209,93.9414,266.1946,0,U,48058,999,25276,.49252E-3,.193E-5,0
ONEWEB-0148,2021-025T,2026-06-11T11:37:32.267136,13.13470631,.000241,87.8950,321.3661,95.4829,264.6575,0,U,48059,999,25286,-.63845E-4,-.11E-6,0
ONEWEB-0160,2021-025U,2026-06-11T12:01:54.988032,13.13471200,.0001573,87.8949,321.3588,71.4253,288.7047,0,U,48060,999,25281,.10139E-2,.383E-5,0
ONEWEB-0163,2021-025V,2026-06-11T09:50:16.349280,13.13471805,.0001904,87.8955,321.3709,104.2051,255.9289,0,U,48061,999,25292,-.88405E-4,-.2E-6,0
ONEWEB-0159,2021-025W,2026-06-11T16:56:52.053792,13.13470943,.000185,87.8960,321.3055,103.5756,256.5579,0,U,48062,999,25288,-.61669E-3,-.212E-5,0
ONEWEB-0164,2021-025X,2026-06-11T16:30:03.114720,13.13469731,.0001754,87.8960,321.3152,93.9404,266.1926,0,U,48063,999,25286,-.4143E-3,-.139E-5,0
ONEWEB-0167,2021-025Y,2026-06-11T11:41:10.166208,13.13471763,.0001524,87.8947,321.3658,116.6368,243.4917,0,U,48064,999,25282,-.21231E-3,-.65E-6,0
ONEWEB-0166,2021-025Z,2026-06-11T10:24:23.688864,13.13471639,.0002006,87.8960,321.3473,96.8492,263.2865,0,U,48065,999,25289,.861E-3,.327E-5,0
ONEWEB-0151,2021-025AA,2026-06-11T10:26:50.371008,13.13469952,.0001692,87.8948,321.3642,97.7696,262.3625,0,U,48066,999,25283,.10048E-2,.38E-5,0
ONEWEB-0170,2021-025AB,2026-06-11T16:08:07.073376,13.13469378,.0001368,87.8950,321.3189,89.9990,270.1296,0,U,48067,999,25282,.63171E-3,.243E-5,0
ONEWEB-0168,2021-025AC,2026-06-11T12:06:47.356992,13.13470049,.0001928,87.8957,321.3518,100.1789,259.9557,0,U,48068,999,25281,.84256E-3,.32E-5,0
ONEWEB-0173,2021-025AD,2026-06-11T11:54:36.086400,13.13470682,.0001833,87.8949,321.3556,107.8475,252.2854,0,U,48069,999,25305,.72608E-3,.278E-5,0
ONEWEB-0171,2021-025AE,2026-06-11T16:27:37.075392,13.13469908,.0001712,87.8950,321.3257,96.1273,264.0051,0,U,48070,999,25289,-.3403E-3,-.112E-5,0
ONEWEB-0172,2021-025AF,2026-06-11T15:58:21.790272,13.13470682,.0001716,87.8955,321.3195,100.6480,259.4842,0,U,48071,999,25378,.93496E-3,.354E-5,0
ONEWEB-0174,2021-025AG,2026-06-11T11:52:10.441920,13.13470881,.0001971,87.8953,321.3532,96.7394,263.3960,0,U,48072,999,25308,.59341E-3,.229E-5,0
ONEWEB-0175,2021-025AH,2026-06-11T16:15:26.195328,13.13469608,.0001464,87.8959,321.3004,98.5942,261.5354,0,U,48073,999,25276,.27858E-3,.114E-5,0
ONEWEB-0177,2021-025AJ,2026-06-11T16:32:29.357088,13.13470475,.0001973,87.8957,321.3166,100.7247,259.4105,0,U,48074,999,25295,-.58993E-3,-.203E-5,0
ONEWEB-0178,2021-025AK,2026-06-11T11:30:23.925312,13.13470389,.0001652,87.8941,321.3720,103.0843,257.0470,0,U,48075,999,25297,-.11166E-2,-.395E-5,0
ONEWEB-0108,2021-025AL,2026-06-11T16:00:48.515616,13.13469566,.0001927,87.8960,321.3124,89.5531,270.5819,0,U,48076,999,25292,.88815E-3,.337E-5,0
ONEWEB-0169,2021-025AM,2026-06-11T16:47:06.908064,13.13470084,.0001945,87.8951,321.3143,96.3384,263.7966,0,U,48077,999,25158,-.73636E-3,-.256E-5,0
ONEWEB-0176,2021-031A,2026-06-11T14:56:14.775072,13.14503197,.0001842,87.8960,290.8084,102.9790,257.1545,0,U,48210,999,24758,-.33424E-3,-.111E-5,0
ONEWEB-0184,2021-031B,2026-06-11T14:17:25.202112,13.14502584,.0001314,87.8969,290.8141,122.0933,238.0324,0,U,48211,999,24755,.9801E-4,.49E-6,0
ONEWEB-0179,2021-031C,2026-06-11T09:49:13.190016,14.25519479,.0218619,87.8985,288.3634,276.2482,81.3849,0,U,48212,999,24822,.69805E-4,.228E-5,0
ONEWEB-0180,2021-031D,2026-06-11T14:21:59.516064,13.14502917,.0002064,87.8967,290.8097,112.8297,247.3051,0,U,48213,999,24748,-.15188E-3,-.44E-6,0
ONEWEB-0218,2021-031E,2026-06-11T14:53:57.480288,13.14502471,.0001597,87.8968,290.8044,128.1769,231.9505,0,U,48214,999,24764,-.41603E-3,-.141E-5,0
ONEWEB-0209,2021-031F,2026-06-11T14:37:57.233280,13.14502750,.000208,87.8957,290.8238,104.8913,255.2447,0,U,48215,999,24764,-.11705E-2,-.421E-5,0
ONEWEB-0198,2021-031G,2026-06-11T14:15:20.601216,13.14502388,.0001922,87.8952,290.8268,113.9150,246.2181,0,U,48216,999,24775,.18738E-3,.82E-6,0
ONEWEB-0189,2021-031H,2026-06-11T14:33:24.622272,13.14503118,.0001909,87.8965,290.8099,110.8194,249.3140,0,U,48217,999,24749,-.35816E-3,-.12E-5,0
