ONEWEB-0162             
1 48056U 21025Q   26162.49273117  .00000223  00000+0  57605-3 0  9996
2 48056  87.8952 321.3576 0001982  94.0955 266.0400 13.13470409252798
ONEWEB-0155             
1 48057U 21025R   26162.42345985  .00000561  00000+0  15025-2 0  9997
2 48057  87.8941 321.3672 0001784 102.0134 258.1195 13.13469871252922
ONEWEB-0149             
1 48058U 21025S   26162.67400536  .00000193  00000+0  49252-3 0  9990
2 48058  87.8957 321.3209 0002022  93.9414 266.1946 13.13469238252763
ONEWEB-0148             
1 48059U 21025T   26162.48440124 -.00000011  00000+0 -63845-4 0  9993
2 48059  87.8950 321.3661 0002410  95.4829 264.6575 13.13470631252868
ONEWEB-0160             
1 48060U 21025U   26162.50133088  .00000383  00000+0  10139-2 0  9992
2 48060  87.8949 321.3588 0001573  71.4253 288.7047 13.13471200252819
ONEWEB-0163             
1 48061U 21025V   26162.40991145 -.00000020  00000+0 -88405-4 0  9991
2 48061  87.8955 321.3709 0001904 104.2051 255.9289 13.13471805252928
ONEWEB-0159             
1 48062U 21025W   26162.70615803 -.00000212  00000+0 -61669-3 0  9994
2 48062  87.8960 321.3055 0001850 103.5756 256.5579 13.13470943252889
ONEWEB-0164             
1 48063U 21025X   26162.68753605 -.00000139  00000+0 -41430-3 0  9997
2 48063  87.8960 321.3152 0001754  93.9404 266.1926 13.13469731252867
ONEWEB-0167             
1 48064U 21025Y   26162.48692322 -.00000065  00000+0 -21231-3 0  9999
2 48064  87.8947 321.3658 0001524 116.6368 243.4917 13.13471763252823
ONEWEB-0166             
1 48065U 21025Z   26162.43360751  .00000327  00000+0  86100-3 0  9998
2 48065  87.8960 321.3473 0002006  96.8492 263.2865 13.13471639252898
ONEWEB-0151             
1 48066U 21025AA  26162.43530522  .00000380  00000+0  10048-2 0  9990
2 48066  87.8948 321.3642 0001692  97.7696 262.3625 13.13469952252832
ONEWEB-0170             
1 48067U 21025AB  26162.67230409  .00000243  00000+0  63171-3 0  9992
2 48067  87.8950 321.3189 0001368  89.9990 270.1296 13.13469378252824
ONEWEB-0168             
1 48068U 21025AC  26162.50471478  .00000320  00000+0  84256-3 0  9991
2 48068  87.8957 321.3518 0001928 100.1789 259.9557 13.13470049252813
ONEWEB-0173             
1 48069U 21025AD  26162.49625100  .00000278  00000+0  72608-3 0  9993
2 48069  87.8949 321.3556 0001833 107.8475 252.2854 13.13470682253054
ONEWEB-0171             
1 48070U 21025AE  26162.68584578 -.00000112  00000+0 -34030-3 0  9995
2 48070  87.8950 321.3257 0001712  96.1273 264.0051 13.13469908252898
ONEWEB-0172             
1 48071U 21025AF  26162.66552998  .00000354  00000+0  93496-3 0  9992
2 48071  87.8955 321.3195 0001716 100.6480 259.4842 13.13470682253786
ONEWEB-0174             
1 48072U 21025AG  26162.49456530  .00000229  00000+0  59341-3 0  9991
2 48072  87.8953 321.3532 0001971  96.7394 263.3960 13.13470881253081
ONEWEB-0175             
1 48073U 21025AH  26162.67738652  .00000114  00000+0  27858-3 0  9991
2 48073  87.8959 321.3004 0001464  98.5942 261.5354 13.13469608252764
ONEWEB-0177             
1 48074U 21025AJ  26162.68922867 -.00000203  00000+0 -58993-3 0  9991
2 48074  87.8957 321.3166 0001973 100.7247 259.4105 13.13470475252956
ONEWEB-0178             
1 48075U 21025AK  26162.47944358 -.00000395  00000+0 -11166-2 0  9990
2 48075  87.8941 321.3720 0001652 103.0843 257.0470 13.13470389252973
ONEWEB-0108             
1 48076U 21025AL  26162.66722819  .00000337  00000+0  88815-3 0  9998
2 48076  87.8960 321.3124 0001927  89.5531 270.5819 13.13469566252927
ONEWEB-0169             
1 48077U 21025AM  26162.69938551 -.00000256  00000+0 -73636-3 0  9991
2 48077  87.8951 321.3143 0001945  96.3384 263.7966 13.13470084251586
ONEWEB-0176             
1 48210U 21031A   26162.62239323 -.00000111  00000+0 -33424-3 0  9992
2 48210  87.8960 290.8084 0001842 102.9790 257.1545 13.14503197247588
ONEWEB-0184             
1 48211U 21031B   26162.59543058  .00000049  00000+0  98010-4 0  9993
2 48211  87.8969 290.8141 0001314 122.0933 238.0324 13.14502584247557
ONEWEB-0179             
1 48212U 21031C   26162.40918044  .00000228  00000+0  69805-4 0  9994
2 48212  87.8985 288.3634 0218619 276.2482  81.3849 14.25519479248224
ONEWEB-0180             
1 48213U 21031D   26162.59860551 -.00000044  00000+0 -15188-3 0  9996
2 48213  87.8967 290.8097 0002064 112.8297 247.3051 13.14502917247482
ONEWEB-0218             
1 48214U 21031E   26162.62080417 -.00000141  00000+0 -41603-3 0  9995
2 48214  87.8968 290.8044 0001597 128.1769 231.9505 13.14502471247646
ONEWEB-0209             
1 48215U 21031F   26162.60969020 -.00000421  00000+0 -11705-2 0  9990
2 48215  87.8957 290.8238 0002080 104.8913 255.2447 13.14502750247644
ONEWEB-0198             
1 48216U 21031G   26162.59398844  .00000082  00000+0  18738-3 0  9994
2 48216  87.8952 290.8268 0001922 113.9150 246.2181 13.14502388247755
ONEWEB-0189             
1 48217U 21031H   26162.60653498 -.00000120  00000+0 -35816-3 0  9997
2 48217  87.8965 290.8099 0001909 110.8194 249.3140 13.14503118247493
